0 RBSP A
1 38752U 12046A   13282.55362197  .00000006  00000-0  10000-3 0  1804
2 38752 009.9671 092.0731 6817669 006.6101 359.0584 02.67318312 10848
0 RBSP A
1 38752U 12046A   13283.30171958 -.00000115  00000-0  00000+0 0  1820
2 38752 009.9364 091.7029 6819548 007.3198 358.9678 02.67316630 10871
0 RBSP A
1 38752U 12046A   13285.54594475  .00000030  00000-0  10000-3 0  1810
2 38752 009.9796 090.7143 6816364 009.3031 358.6718 02.67325012 10929
0 RBSP A
1 38752U 12046A   13287.41611568  .00000022  00000-0  10000-3 0  1823
2 38752 009.9831 089.8569 6816564 010.9622 358.4307 02.67320090 10974
0 RBSP A
1 38752U 12046A   13288.91228110 -.00000003  00000-0  10000-3 0  1837
2 38752 009.9802 089.1939 6817496 012.2587 358.2313 02.67317342 11013
0 RBSP A
1 38752U 12046A   13290.40845890 -.00000036  00000-0  10000-3 0  1841
2 38752 009.9844 088.5340 6817182 013.5567 358.0629 02.67317267 11050
0 RBSP A
1 38752U 12046A   13290.40847586 -.00000142  00000-0  00000+0 0  1859
2 38752 009.9430 088.4590 6818375 013.6450 358.0663 02.67315549 11053
0 RBSP A
1 38752U 12046A   13291.90459410 -.00000063  00000-0  10000-3 0  1857
2 38752 009.9929 087.8332 6817332 014.9175 357.8511 02.67317350 11098
0 RBSP A
1 38752U 12046A   13294.52284814 -.00000069  00000-0  10000-3 0  1869
2 38752 009.9995 086.6451 6817118 017.2465 357.4955 02.67317386 11165
0 RBSP A
1 38752U 12046A   13294.89688967 -.00000066  00000-0  10000-3 0  1874
2 38752 009.9931 086.4274 6816979 017.5892 357.4640 02.67317482 11176
